[{"OBJECT_NAME":"CARTOSAT-2D","OBJECT_ID":"2017-008A","EPOCH":"2023-04-26T19:24:09.763776","MEAN_MOTION":15.19300111,"ECCENTRICITY":0.0004282,"INCLINATION":97.4184,"RA_OF_ASC_NODE":176.991,"ARG_OF_PERICENTER":305.4022,"MEAN_ANOMALY":54.6726,"EPHEMERIS_TYPE":0,"CLASSIFICATION_TYPE":"U","NORAD_CAT_ID":41948,"ELEMENT_SET_NO":999,"REV_AT_EPOCH":34337,"BSTAR":0.00017964,"MEAN_MOTION_DOT":3.724e-5,"MEAN_MOTION_DDOT":0},{"OBJECT_NAME":"ZHUHAI-1 02 (CAS-4B)","OBJECT_ID":"2017-034B","EPOCH":"2023-04-27T02:52:56.042112","MEAN_MOTION":15.16518682,"ECCENTRICITY":0.0009416,"INCLINATION":43.0188,"RA_OF_ASC_NODE":39.3856,"ARG_OF_PERICENTER":137.4922,"MEAN_ANOMALY":0.3843,"EPHEMERIS_TYPE":0,"CLASSIFICATION_TYPE":"U","NORAD_CAT_ID":42759,"ELEMENT_SET_NO":999,"REV_AT_EPOCH":32388,"BSTAR":0.00049941,"MEAN_MOTION_DOT":9.701e-5,"MEAN_MOTION_DDOT":0},{"OBJECT_NAME":"NUSAT-3 (MILANESAT)","OBJECT_ID":"2017-034C","EPOCH":"2023-04-27T03:27:52.915680","MEAN_MOTION":15.17732037,"ECCENTRICITY":0.0012182,"INCLINATION":43.015,"RA_OF_ASC_NODE":31.596,"ARG_OF_PERICENTER":162.3386,"MEAN_ANOMALY":346.2526,"EPHEMERIS_TYPE":0,"CLASSIFICATION_TYPE":"U","NORAD_CAT_ID":42760,"ELEMENT_SET_NO":999,"REV_AT_EPOCH":32398,"BSTAR":0.00049663,"MEAN_MOTION_DOT":0.0001,"MEAN_MOTION_DDOT":0},{"OBJECT_NAME":"ZHUHAI-1 01 (CAS-4A)","OBJECT_ID":"2017-034D","EPOCH":"2023-04-27T03:17:58.983072","MEAN_MOTION":15.16581936,"ECCENTRICITY":0.0010201,"INCLINATION":43.0172,"RA_OF_ASC_NODE":37.8316,"ARG_OF_PERICENTER":139.0405,"MEAN_ANOMALY":1.6318,"EPHEMERIS_TYPE":0,"CLASSIFICATION_TYPE":"U","NORAD_CAT_ID":42761,"ELEMENT_SET_NO":999,"REV_AT_EPOCH":32389,"BSTAR":0.00044236,"MEAN_MOTION_DOT":8.581e-5,"MEAN_MOTION_DDOT":0},{"OBJECT_NAME":"FORMOSAT-5","OBJECT_ID":"2017-049A","EPOCH":"2023-04-26T21:07:29.708544","MEAN_MOTION":14.50783164,"ECCENTRICITY":0.0010621,"INCLINATION":98.3225,"RA_OF_ASC_NODE":194.8127,"ARG_OF_PERICENTER":14.8551,"MEAN_ANOMALY":345.2922,"EPHEMERIS_TYPE":0,"CLASSIFICATION_TYPE":"U","NORAD_CAT_ID":42920,"ELEMENT_SET_NO":999,"REV_AT_EPOCH":30031,"BSTAR":0.00016235,"MEAN_MOTION_DOT":5.95e-6,"MEAN_MOTION_DDOT":0},{"OBJECT_NAME":"SENTINEL-5P","OBJECT_ID":"2017-064A","EPOCH":"2023-04-27T01:26:46.247136","MEAN_MOTION":14.19521324,"ECCENTRICITY":0.0001465,"INCLINATION":98.7008,"RA_OF_ASC_NODE":57.8893,"ARG_OF_PERICENTER":87.4923,"MEAN_ANOMALY":272.6421,"EPHEMERIS_TYPE":0,"CLASSIFICATION_TYPE":"U","NORAD_CAT_ID":42969,"ELEMENT_SET_NO":999,"REV_AT_EPOCH":28681,"BSTAR":8.5179e-5,"MEAN_MOTION_DOT":1.36e-6,"MEAN_MOTION_DDOT":0},{"OBJECT_NAME":"SKYSAT-C11","OBJECT_ID":"2017-068A","EPOCH":"2023-04-26T13:57:05.300640","MEAN_MOTION":15.39882412,"ECCENTRICITY":0.0011583,"INCLINATION":97.3158,"RA_OF_ASC_NODE":239.355,"ARG_OF_PERICENTER":96.8246,"MEAN_ANOMALY":263.4318,"EPHEMERIS_TYPE":0,"CLASSIFICATION_TYPE":"U","NORAD_CAT_ID":42987,"ELEMENT_SET_NO":999,"REV_AT_EPOCH":30654,"BSTAR":0.00043628,"MEAN_MOTION_DOT":0.00017313,"MEAN_MOTION_DDOT":0},{"OBJECT_NAME":"SKYSAT-C10","OBJECT_ID":"2017-068B","EPOCH":"2023-04-26T08:06:33.204384","MEAN_MOTION":15.40562137,"ECCENTRICITY":0.0003464,"INCLINATION":97.3217,"RA_OF_ASC_NODE":239.605,"ARG_OF_PERICENTER":179.7702,"MEAN_ANOMALY":180.3547,"EPHEMERIS_TYPE":0,"CLASSIFICATION_TYPE":"U","NORAD_CAT_ID":42988,"ELEMENT_SET_NO":999,"REV_AT_EPOCH":30653,"BSTAR":0.00043586,"MEAN_MOTION_DOT":0.00017652,"MEAN_MOTION_DDOT":0},{"OBJECT_NAME":"SKYSAT-C9","OBJECT_ID":"2017-068C","EPOCH":"2023-04-26T06:56:46.128192","MEAN_MOTION":15.42867362,"ECCENTRICITY":0.0001823,"INCLINATION":97.314,"RA_OF_ASC_NODE":238.5081,"ARG_OF_PERICENTER":127.427,"MEAN_ANOMALY":232.7144,"EPHEMERIS_TYPE":0,"CLASSIFICATION_TYPE":"U","NORAD_CAT_ID":42989,"ELEMENT_SET_NO":999,"REV_AT_EPOCH":30672,"BSTAR":0.00045037,"MEAN_MOTION_DOT":0.00019699,"MEAN_MOTION_DDOT":0},{"OBJECT_NAME":"SKYSAT-C8","OBJECT_ID":"2017-068D","EPOCH":"2023-04-26T07:00:11.895840","MEAN_MOTION":15.39896966,"ECCENTRICITY":0.0009536,"INCLINATION":97.3233,"RA_OF_ASC_NODE":239.9409,"ARG_OF_PERICENTER":57.1211,"MEAN_ANOMALY":303.0951,"EPHEMERIS_TYPE":0,"CLASSIFICATION_TYPE":"U","NORAD_CAT_ID":42990,"ELEMENT_SET_NO":999,"REV_AT_EPOCH":30654,"BSTAR":0.00042771,"MEAN_MOTION_DOT":0.00016966,"MEAN_MOTION_DDOT":0},{"OBJECT_NAME":"SKYSAT-C7","OBJECT_ID":"2017-068E","EPOCH":"2023-04-26T13:44:23.479008","MEAN_MOTION":15.40008411,"ECCENTRICITY":0.0010818,"INCLINATION":97.323,"RA_OF_ASC_NODE":240.3574,"ARG_OF_PERICENTER":94.3096,"MEAN_ANOMALY":265.9386,"EPHEMERIS_TYPE":0,"CLASSIFICATION_TYPE":"U","NORAD_CAT_ID":42991,"ELEMENT_SET_NO":999,"REV_AT_EPOCH":30659,"BSTAR":0.0004527,"MEAN_MOTION_DOT":0.00018039,"MEAN_MOTION_DDOT":0},{"OBJECT_NAME":"SKYSAT-C6","OBJECT_ID":"2017-068F","EPOCH":"2023-04-27T02:00:30.168000","MEAN_MOTION":15.39934104,"ECCENTRICITY":0.0012026,"INCLINATION":97.326,"RA_OF_ASC_NODE":241.3404,"ARG_OF_PERICENTER":98.2577,"MEAN_ANOMALY":262.0033,"EPHEMERIS_TYPE":0,"CLASSIFICATION_TYPE":"U","NORAD_CAT_ID":42992,"ELEMENT_SET_NO":999,"REV_AT_EPOCH":30668,"BSTAR":0.00046422,"MEAN_MOTION_DOT":0.00018464,"MEAN_MOTION_DDOT":0},{"OBJECT_NAME":"CARTOSAT-2F","OBJECT_ID":"2018-004A","EPOCH":"2023-04-27T03:16:23.068704","MEAN_MOTION":15.1931885,"ECCENTRICITY":0.0003028,"INCLINATION":97.4013,"RA_OF_ASC_NODE":177.4053,"ARG_OF_PERICENTER":52.5158,"MEAN_ANOMALY":31.3427,"EPHEMERIS_TYPE":0,"CLASSIFICATION_TYPE":"U","NORAD_CAT_ID":43111,"ELEMENT_SET_NO":999,"REV_AT_EPOCH":29317,"BSTAR":0.00026722,"MEAN_MOTION_DOT":5.577e-5,"MEAN_MOTION_DDOT":0}]
