CARTOSAT-2D             
1 41948U 17008A   23116.80844634  .00003724  00000+0  17964-3 0  9997
2 41948  97.4184 176.9910 0004282 305.4022  54.6726 15.19300111343378
ZHUHAI-1 02 (CAS-4B)    
1 42759U 17034B   23117.12009308  .00009701  00000+0  49941-3 0  9995
2 42759  43.0188  39.3856 0009416 137.4922   0.3843 15.16518682323880
NUSAT-3 (MILANESAT)     
1 42760U 17034C   23117.14436245  .00010000  00000+0  49663-3 0  9998
2 42760  43.0150  31.5960 0012182 162.3386 346.2526 15.17732037323980
ZHUHAI-1 01 (CAS-4A)    
1 42761U 17034D   23117.13748823  .00008581  00000+0  44236-3 0  9998
2 42761  43.0172  37.8316 0010201 139.0405   1.6318 15.16581936323892
FORMOSAT-5              
1 42920U 17049A   23116.88020496  .00000595  00000+0  16235-3 0  9996
2 42920  98.3225 194.8127 0010621  14.8551 345.2922 14.50783164300317
SENTINEL-5P             
1 42969U 17064A   23117.06025749  .00000136  00000+0  85179-4 0  9998
2 42969  98.7008  57.8893 0001465  87.4923 272.6421 14.19521324286814
SKYSAT-C11              
1 42987U 17068A   23116.58131135  .00017313  00000+0  43628-3 0  9992
2 42987  97.3158 239.3550 0011583  96.8246 263.4318 15.39882412306543
SKYSAT-C10              
1 42988U 17068B   23116.33788431  .00017652  00000+0  43586-3 0  9992
2 42988  97.3217 239.6050 0003464 179.7702 180.3547 15.40562137306536
SKYSAT-C9               
1 42989U 17068C   23116.28942278  .00019699  00000+0  45037-3 0  9994
2 42989  97.3140 238.5081 0001823 127.4270 232.7144 15.42867362306727
SKYSAT-C8               
1 42990U 17068D   23116.29180435  .00016966  00000+0  42771-3 0  9992
2 42990  97.3233 239.9409 0009536  57.1211 303.0951 15.39896966306540
SKYSAT-C7               
1 42991U 17068E   23116.57249397  .00018039  00000+0  45270-3 0  9997
2 42991  97.3230 240.3574 0010818  94.3096 265.9386 15.40008411306591
SKYSAT-C6               
1 42992U 17068F   23117.08368250  .00018464  00000+0  46422-3 0  9997
2 42992  97.3260 241.3404 0012026  98.2577 262.0033 15.39934104306680
CARTOSAT-2F             
1 43111U 18004A   23117.13637811  .00005577  00000+0  26722-3 0  9992
2 43111  97.4013 177.4053 0003028  52.5158  31.3427 15.19318850293175
